[{"OBJECT_NAME":"SVOM","OBJECT_ID":"2024-116B","EPOCH":"2026-03-09T23:40:42.296160","MEAN_MOTION":14.83280449,"ECCENTRICITY":0.00053838,"INCLINATION":28.9973,"RA_OF_ASC_NODE":24.3307,"ARG_OF_PERICENTER":105.8209,"MEAN_ANOMALY":254.2978,"EPHEMERIS_TYPE":0,"CLASSIFICATION_TYPE":"U","NORAD_CAT_ID":60089,"ELEMENT_SET_NO":999,"REV_AT_EPOCH":9285,"BSTAR":0.00025701068,"MEAN_MOTION_DOT":2.275e-5,"MEAN_MOTION_DDOT":0},{"OBJECT_NAME":"RESURS O1 DEB","OBJECT_ID":"1994-074C","EPOCH":"2026-03-09T22:03:24.538464","MEAN_MOTION":14.59664665,"ECCENTRICITY":0.01176342,"INCLINATION":97.9654,"RA_OF_ASC_NODE":81.1403,"ARG_OF_PERICENTER":28.9875,"MEAN_ANOMALY":41.4424,"EPHEMERIS_TYPE":0,"CLASSIFICATION_TYPE":"U","NORAD_CAT_ID":23344,"ELEMENT_SET_NO":999,"REV_AT_EPOCH":65875,"BSTAR":0.00041976407,"MEAN_MOTION_DOT":2.153e-5,"MEAN_MOTION_DDOT":0}]
